[{"OBJECT_NAME":"STARLINK-4477","OBJECT_ID":"2022-101V","EPOCH":"2026-03-09T08:56:54.072384","MEAN_MOTION":15.0882886,"ECCENTRICITY":0.00015088,"INCLINATION":53.2174,"RA_OF_ASC_NODE":55.072,"ARG_OF_PERICENTER":89.1794,"MEAN_ANOMALY":270.9371,"EPHEMERIS_TYPE":0,"CLASSIFICATION_TYPE":"U","NORAD_CAT_ID":53546,"ELEMENT_SET_NO":999,"REV_AT_EPOCH":19640,"BSTAR":8.4933405e-5,"MEAN_MOTION_DOT":1.064e-5,"MEAN_MOTION_DDOT":0},{"OBJECT_NAME":"OBJECT M","OBJECT_ID":"2017-042M","EPOCH":"2026-03-09T22:38:39.337440","MEAN_MOTION":15.07991931,"ECCENTRICITY":0.0005117,"INCLINATION":97.4139,"RA_OF_ASC_NODE":234.2602,"ARG_OF_PERICENTER":83.1417,"MEAN_ANOMALY":277.0393,"EPHEMERIS_TYPE":0,"CLASSIFICATION_TYPE":"U","NORAD_CAT_ID":42836,"ELEMENT_SET_NO":999,"REV_AT_EPOCH":47205,"BSTAR":0.00047182615,"MEAN_MOTION_DOT":7.201e-5,"MEAN_MOTION_DDOT":0}]
